GLOBALSTAR M063         
1 26081U 00008A   25150.28269914 -.00000081  00000+0  20278-4 0  9991
2 26081  51.9919 158.7266 0004783 282.4482  91.3906 11.86174542155457
GLOBALSTAR M060         
1 26083U 00008C   25150.17765707 -.00000080  00000+0  10807-3 0  9997
2 26083  52.0005 106.2007 0003377  81.3857  20.2997 12.17661486150176
GLOBALSTAR M064         
1 26084U 00008D   25150.56672667 -.00000035  00000+0  69219-3 0  9994
2 26084  52.0030 257.0139 0001208  48.6168 311.4768 11.88534449165002
GLOBALSTAR M065         
1 31571U 07020A   25150.56844124 -.00000063  00000+0  22960-3 0  9994
2 31571  51.9900 279.8940 0009587 267.7331 173.4956 12.62008480831187
GLOBALSTAR M069         
1 31573U 07020C   25150.53976545 -.00000067  00000+0  23071-3 0  9994
2 31573  51.9950 255.3807 0001579 159.0686 214.0926 12.31002684831965
GLOBALSTAR M071         
1 31576U 07020F   25150.57524840 -.00000042  00000+0  48786-3 0  9991
2 31576  52.0066 280.1794 0001350  97.9267 343.9576 12.18254712492794
